start=new Date('2022-01-22T00:00:00.000Z').valueOf();
sats=[{"EPHEMERIS_TYPE":"0","GP_ID":"194306455","CLASSIFICATION_TYPE":"U","PERIOD":"95.439","ELEMENT_SET_NO":"999","RCS_SIZE":"LARGE","PERIAPSIS":"538.315","BSTAR":"0.00231490000000","MEAN_MOTION":"15.08810349","TLE_LINE2":"2 49732  53.2019  89.3647 0002198  29.7442  53.3426 15.08810349  8822","REF_FRAME":"TEME","APOAPSIS":"541.357","SEMIMAJOR_AXIS":"6917.971","OBJECT_ID":"2021-115J","REV_AT_EPOCH":"882","MEAN_ANOMALY":"53.3426","SITE":"AFETR","COUNTRY_CODE":"US","MEAN_ELEMENT_THEORY":"SGP4","NORAD_CAT_ID":"49732","ARG_OF_PERICENTER":"29.7442","EPOCH":"2022-01-21T14:00:01.000224","OBJECT_NAME":"STARLINK-3246","MEAN_MOTION_DOT":"0.00036717","RA_OF_ASC_NODE":"89.3647","TLE_LINE1":"1 49732U 21115J   22021.58334491  .00036717  00000-0  23149-2 0  9994","ECCENTRICITY":"0.00021980","MEAN_MOTION_DDOT":"0.0000000000000","FILE":"3279285","LAUNCH_DATE":"2021-12-02","OBJECT_TYPE":"PAYLOAD","CENTER_NAME":"EARTH","TIME_SYSTEM":"UTC","INCLINATION":"53.2019","DECAY_DATE":null},{"OBJECT_NAME":"STARLINK-3252","EPOCH":"2022-01-21T14:00:01.000224","MEAN_MOTION_DOT":"0.00036348","TIME_SYSTEM":"UTC","LAUNCH_DATE":"2021-12-02","FILE":"3279324","OBJECT_TYPE":"PAYLOAD","CENTER_NAME":"EARTH","DECAY_DATE":null,"INCLINATION":"53.2129","ECCENTRICITY":"0.00022020","MEAN_MOTION_DDOT":"0.0000000000000","RA_OF_ASC_NODE":"89.3108","TLE_LINE1":"1 49733U 21115K   22021.58334491  .00036348  00000-0  22927-2 0  9998","PERIAPSIS":"538.349","RCS_SIZE":"LARGE","PERIOD":"95.440","ELEMENT_SET_NO":"999","TLE_LINE2":"2 49733  53.2129  89.3108 0002202  27.9986  95.0317 15.08798354  3600","REF_FRAME":"TEME","APOAPSIS":"541.396","BSTAR":"0.00229270000000","MEAN_MOTION":"15.08798354","EPHEMERIS_TYPE":"0","GP_ID":"194330729","CLASSIFICATION_TYPE":"U","REV_AT_EPOCH":"360","MEAN_ELEMENT_THEORY":"SGP4","COUNTRY_CODE":"US","ARG_OF_PERICENTER":"27.9986","NORAD_CAT_ID":"49733","SITE":"AFETR","MEAN_ANOMALY":"95.0317","SEMIMAJOR_AXIS":"6918.008","OBJECT_ID":"2021-115K"},{"MEAN_MOTION_DOT":"0.00029013","OBJECT_NAME":"STARLINK-3238","EPOCH":"2022-01-21T22:00:00.999936","DECAY_DATE":null,"INCLINATION":"53.2153","OBJECT_TYPE":"PAYLOAD","CENTER_NAME":"EARTH","LAUNCH_DATE":"2021-12-02","FILE":"3279442","TIME_SYSTEM":"UTC","TLE_LINE1":"1 49734U 21115L   22021.91667824  .00029013  00000-0  71288-3 0  9991","RA_OF_ASC_NODE":"81.8044","MEAN_MOTION_DDOT":"0.0000000000000","ECCENTRICITY":"0.00023990","MEAN_MOTION":"15.40449144","BSTAR":"0.00071288000000","REF_FRAME":"TEME","APOAPSIS":"446.422","TLE_LINE2":"2 49734  53.2153  81.8044 0002399  24.8692  31.4908 15.40449144  8961","ELEMENT_SET_NO":"999","PERIOD":"93.479","RCS_SIZE":"LARGE","PERIAPSIS":"443.148","GP_ID":"194335044","CLASSIFICATION_TYPE":"U","EPHEMERIS_TYPE":"0","MEAN_ANOMALY":"31.4908","SITE":"AFETR","COUNTRY_CODE":"US","NORAD_CAT_ID":"49734","MEAN_ELEMENT_THEORY":"SGP4","ARG_OF_PERICENTER":"24.8692","REV_AT_EPOCH":"896","SEMIMAJOR_AXIS":"6822.920","OBJECT_ID":"2021-115L"},{"INCLINATION":"53.2057","DECAY_DATE":null,"TIME_SYSTEM":"UTC","OBJECT_TYPE":"PAYLOAD","CENTER_NAME":"EARTH","FILE":"3279517","LAUNCH_DATE":"2021-12-02","MEAN_MOTION_DDOT":"0.0000000000000","ECCENTRICITY":"0.00021090","RA_OF_ASC_NODE":"87.8400","TLE_LINE1":"1 49735U 21115M   22021.91667824 -.00006250  00000-0 -37505-3 0  9996","MEAN_MOTION_DOT":"-0.00006250","EPOCH":"2022-01-21T22:00:00.999936","OBJECT_NAME":"STARLINK-3113","COUNTRY_CODE":"US","ARG_OF_PERICENTER":"32.8234","MEAN_ELEMENT_THEORY":"SGP4","NORAD_CAT_ID":"49735","MEAN_ANOMALY":"81.7636","SITE":"AFETR","REV_AT_EPOCH":"887","OBJECT_ID":"2021-115M","SEMIMAJOR_AXIS":"6917.928","REF_FRAME":"TEME","APOAPSIS":"541.252","TLE_LINE2":"2 49735  53.2057  87.8400 0002109  32.8234  81.7636 15.08824489  8876","MEAN_MOTION":"15.08824489","BSTAR":"-0.00037505000000","RCS_SIZE":"LARGE","PERIAPSIS":"538.334","ELEMENT_SET_NO":"999","PERIOD":"95.439","GP_ID":"194336925","CLASSIFICATION_TYPE":"U","EPHEMERIS_TYPE":"0"},{"MEAN_MOTION_DOT":"0.00033375","EPOCH":"2022-01-21T22:00:00.999936","OBJECT_NAME":"STARLINK-3148","MEAN_MOTION_DDOT":"0.0000000000000","ECCENTRICITY":"0.00025700","TLE_LINE1":"1 49736U 21115N   22021.91667824  .00033375  00000-0  81825-3 0  9997","RA_OF_ASC_NODE":"81.8113","INCLINATION":"53.2153","DECAY_DATE":null,"TIME_SYSTEM":"UTC","OBJECT_TYPE":"PAYLOAD","CENTER_NAME":"EARTH","FILE":"3279519","LAUNCH_DATE":"2021-12-02","CLASSIFICATION_TYPE":"U","GP_ID":"194336628","EPHEMERIS_TYPE":"0","REF_FRAME":"TEME","APOAPSIS":"446.554","TLE_LINE2":"2 49736  53.2153  81.8113 0002570  17.8046  35.4175 15.40443916  8967","MEAN_MOTION":"15.40443916","BSTAR":"0.00081825000000","RCS_SIZE":"MEDIUM","PERIAPSIS":"443.047","ELEMENT_SET_NO":"999","PERIOD":"93.480","OBJECT_ID":"2021-115N","SEMIMAJOR_AXIS":"6822.935","COUNTRY_CODE":"US","MEAN_ELEMENT_THEORY":"SGP4","NORAD_CAT_ID":"49736","ARG_OF_PERICENTER":"17.8046","SITE":"AFETR","MEAN_ANOMALY":"35.4175","REV_AT_EPOCH":"896"},{"SITE":"AFETR","MEAN_ANOMALY":"38.5271","COUNTRY_CODE":"US","MEAN_ELEMENT_THEORY":"SGP4","ARG_OF_PERICENTER":"16.8140","NORAD_CAT_ID":"49737","REV_AT_EPOCH":"896","SEMIMAJOR_AXIS":"6822.919","OBJECT_ID":"2021-115P","BSTAR":"0.00080186000000","MEAN_MOTION":"15.40449451","TLE_LINE2":"2 49737  53.2157  81.8086 0002209  16.8140  38.5271 15.40449451  8965","REF_FRAME":"TEME","APOAPSIS":"446.291","PERIOD":"93.479","ELEMENT_SET_NO":"999","RCS_SIZE":"LARGE","PERIAPSIS":"443.277","EPHEMERIS_TYPE":"0","CLASSIFICATION_TYPE":"U","GP_ID":"194336843","INCLINATION":"53.2157","DECAY_DATE":null,"FILE":"3279512","LAUNCH_DATE":"2021-12-02","CENTER_NAME":"EARTH","OBJECT_TYPE":"PAYLOAD","TIME_SYSTEM":"UTC","TLE_LINE1":"1 49737U 21115P   22021.91667824  .00032701  00000-0  80186-3 0  9999","RA_OF_ASC_NODE":"81.8086","ECCENTRICITY":"0.00022090","MEAN_MOTION_DDOT":"0.0000000000000","MEAN_MOTION_DOT":"0.00032701","OBJECT_NAME":"STARLINK-3225","EPOCH":"2022-01-21T22:00:00.999936"},{"OBJECT_TYPE":"PAYLOAD","CENTER_NAME":"EARTH","FILE":"3279324","LAUNCH_DATE":"2021-12-02","TIME_SYSTEM":"UTC","DECAY_DATE":null,"INCLINATION":"53.2148","TLE_LINE1":"1 49738U 21115Q   22021.58334491  .00072480  00000-0  17592-2 0  9992","RA_OF_ASC_NODE":"83.3839","MEAN_MOTION_DDOT":"0.0000000000000","ECCENTRICITY":"0.00027530","EPOCH":"2022-01-21T14:00:01.000224","OBJECT_NAME":"STARLINK-3143","MEAN_MOTION_DOT":"0.00072480","REV_AT_EPOCH":"362","MEAN_ANOMALY":"343.9960","SITE":"AFETR","MEAN_ELEMENT_THEORY":"SGP4","COUNTRY_CODE":"US","ARG_OF_PERICENTER":"18.6290","NORAD_CAT_ID":"49738","OBJECT_ID":"2021-115Q","SEMIMAJOR_AXIS":"6823.072","ELEMENT_SET_NO":"999","PERIOD":"93.482","PERIAPSIS":"443.059","RCS_SIZE":"LARGE","MEAN_MOTION":"15.40397490","BSTAR":"0.00175920000000","APOAPSIS":"446.816","REF_FRAME":"TEME","TLE_LINE2":"2 49738  53.2148  83.3839 0002753  18.6290 343.9960 15.40397490  3620","GP_ID":"194330984","CLASSIFICATION_TYPE":"U","EPHEMERIS_TYPE":"0"},{"OBJECT_NAME":"STARLINK-3155","EPOCH":"2022-01-21T22:00:00.999936","MEAN_MOTION_DOT":"-0.00006371","ECCENTRICITY":"0.00021120","MEAN_MOTION_DDOT":"0.0000000000000","RA_OF_ASC_NODE":"87.8952","TLE_LINE1":"1 49739U 21115R   22021.91667824 -.00006371  00000-0 -38246-3 0  9997","TIME_SYSTEM":"UTC","LAUNCH_DATE":"2021-12-02","FILE":"3279512","CENTER_NAME":"EARTH","OBJECT_TYPE":"PAYLOAD","INCLINATION":"53.1944","DECAY_DATE":null,"EPHEMERIS_TYPE":"0","CLASSIFICATION_TYPE":"U","GP_ID":"194336835","PERIAPSIS":"538.265","RCS_SIZE":"LARGE","PERIOD":"95.437","ELEMENT_SET_NO":"999","TLE_LINE2":"2 49739  53.1944  87.8952 0002112  32.4945  42.1251 15.08846247  8875","APOAPSIS":"541.187","REF_FRAME":"TEME","BSTAR":"-0.00038246000000","MEAN_MOTION":"15.08846247","SEMIMAJOR_AXIS":"6917.861","OBJECT_ID":"2021-115R","REV_AT_EPOCH":"887","COUNTRY_CODE":"US","MEAN_ELEMENT_THEORY":"SGP4","NORAD_CAT_ID":"49739","ARG_OF_PERICENTER":"32.4945","MEAN_ANOMALY":"42.1251","SITE":"AFETR"},{"MEAN_MOTION_DOT":"0.00030809","OBJECT_NAME":"STARLINK-3226","EPOCH":"2022-01-21T22:00:00.999936","DECAY_DATE":null,"INCLINATION":"53.2150","TIME_SYSTEM":"UTC","CENTER_NAME":"EARTH","OBJECT_TYPE":"PAYLOAD","LAUNCH_DATE":"2021-12-02","FILE":"3279573","MEAN_MOTION_DDOT":"0.0000000000000","ECCENTRICITY":"0.00026190","RA_OF_ASC_NODE":"81.8178","TLE_LINE1":"1 49740U 21115S   22021.91667824  .00030809  00000-0  75587-3 0  9999","REF_FRAME":"TEME","APOAPSIS":"446.530","TLE_LINE2":"2 49740  53.2150  81.8178 0002619  13.3719  35.6359 15.40463322  8961","MEAN_MOTION":"15.40463322","BSTAR":"0.00075587000000","PERIAPSIS":"442.956","RCS_SIZE":"LARGE","ELEMENT_SET_NO":"999","PERIOD":"93.478","GP_ID":"194337787","CLASSIFICATION_TYPE":"U","EPHEMERIS_TYPE":"0","COUNTRY_CODE":"US","NORAD_CAT_ID":"49740","MEAN_ELEMENT_THEORY":"SGP4","ARG_OF_PERICENTER":"13.3719","MEAN_ANOMALY":"35.6359","SITE":"AFETR","REV_AT_EPOCH":"896","SEMIMAJOR_AXIS":"6822.878","OBJECT_ID":"2021-115S"},{"BSTAR":"0.00183260000000","MEAN_MOTION":"15.40405970","TLE_LINE2":"2 49741  53.2152  83.3879 0003035  19.0153 342.5867 15.40405970  3657","REF_FRAME":"TEME","APOAPSIS":"446.983","PERIOD":"93.482","ELEMENT_SET_NO":"999","PERIAPSIS":"442.841","RCS_SIZE":"LARGE","EPHEMERIS_TYPE":"0","CLASSIFICATION_TYPE":"U","GP_ID":"194330730","SITE":"AFETR","MEAN_ANOMALY":"342.5867","COUNTRY_CODE":"US","ARG_OF_PERICENTER":"19.0153","MEAN_ELEMENT_THEORY":"SGP4","NORAD_CAT_ID":"49741","REV_AT_EPOCH":"365","SEMIMAJOR_AXIS":"6823.047","OBJECT_ID":"2021-115T","MEAN_MOTION_DOT":"0.00075575","EPOCH":"2022-01-21T14:00:01.000224","OBJECT_NAME":"STARLINK-3244","INCLINATION":"53.2152","DECAY_DATE":null,"LAUNCH_DATE":"2021-12-02","FILE":"3279324","CENTER_NAME":"EARTH","OBJECT_TYPE":"PAYLOAD","TIME_SYSTEM":"UTC","RA_OF_ASC_NODE":"83.3879","TLE_LINE1":"1 49741U 21115T   22021.58334491  .00075575  00000-0  18326-2 0  9990","ECCENTRICITY":"0.00030350","MEAN_MOTION_DDOT":"0.0000000000000"}];
